YAOGAN-30 11A           
1 49026U 21065A   26068.71073618  .00004757  00000+0  35664-3 0  9999
2 49026  34.9929 159.1721 0004674 355.4238   4.6427 15.02110690253677
STARLINK-35330          
1 65791U 25218A   26068.61152920  .00001516  00000+0  10922-3 0  9993
2 65791  97.6017 292.8091 0002203  84.3083 275.8395 15.05663075 24951
