[{"OBJECT_NAME":"YAOGAN-30 11A","OBJECT_ID":"2021-065A","EPOCH":"2026-03-09T17:03:27.605952","MEAN_MOTION":15.0211069,"ECCENTRICITY":0.00046738,"INCLINATION":34.9929,"RA_OF_ASC_NODE":159.1721,"ARG_OF_PERICENTER":355.4238,"MEAN_ANOMALY":4.6427,"EPHEMERIS_TYPE":0,"CLASSIFICATION_TYPE":"U","NORAD_CAT_ID":49026,"ELEMENT_SET_NO":999,"REV_AT_EPOCH":25367,"BSTAR":0.00035664483,"MEAN_MOTION_DOT":4.757e-5,"MEAN_MOTION_DDOT":0},{"OBJECT_NAME":"STARLINK-35330","OBJECT_ID":"2025-218A","EPOCH":"2026-03-09T14:40:36.122880","MEAN_MOTION":15.05663075,"ECCENTRICITY":0.0002203,"INCLINATION":97.6017,"RA_OF_ASC_NODE":292.8091,"ARG_OF_PERICENTER":84.3083,"MEAN_ANOMALY":275.8395,"EPHEMERIS_TYPE":0,"CLASSIFICATION_TYPE":"U","NORAD_CAT_ID":65791,"ELEMENT_SET_NO":999,"REV_AT_EPOCH":2495,"BSTAR":0.00010922,"MEAN_MOTION_DOT":1.516e-5,"MEAN_MOTION_DDOT":0}]
